GLOBALSTAR M024         
1 25883U 99043A   24308.92627519 -.00000047  00000+0  61513-3 0  9999
2 25883  51.9979 168.8901 0002537  80.4863  19.5106 11.10159579 89847
GLOBALSTAR M027         
1 25884U 99043B   24308.93890611 -.00000091  00000+0 -10462-2 0  9992
2 25884  52.0207 240.4605 0021667 349.3735  10.6598 11.04370561116355
GLOBALSTAR M054         
1 25885U 99043C   24308.52829003 -.00000058  00000+0  33170-3 0  9999
2 25885  52.0166  46.5404 0006580 150.3150 222.5048 11.39205474 93334
GLOBALSTAR M053         
1 25886U 99043D   24308.49994337 -.00000054  00000+0  41600-3 0  9992
2 25886  52.0014 341.1862 0003505  60.0367  85.7682 11.27659902 93980
GLOBALSTAR M058         
1 25907U 99049A   24308.79812786  .00000050  00000+0  18055-2 0  9994
2 25907  51.9970 351.0199 0001960 190.2206 169.8589 11.93189986514630
GLOBALSTAR M050         
1 25908U 99049B   24308.90910610 -.00000112  00000+0 -27446-3 0  9999
2 25908  52.0021  15.2276 0008674 302.8782 227.9570 12.07442682120971
GLOBALSTAR M033         
1 25909U 99049C   24308.60734116  .00000060  00000+0  14587-2 0  9993
2 25909  51.9908 263.4720 0012580 157.9001 202.2391 12.20291273508205
GLOBALSTAR M055         
1 25910U 99049D   24308.64691726 -.00000050  00000+0  37963-3 0  9992
2 25910  52.0020 285.0856 0007483  24.9027 335.2185 12.29413198140549
